O3B FM5                 
1 39188U 13031A   26065.09650725 -.00000026  00000+0  00000+0 0  9997
2 39188   0.0980  13.5954 0003333 322.1460  24.2376  5.00116473231888
O3B FM4                 
1 39189U 13031B   26064.81588385 -.00000026  00000+0  00000+0 0  9999
2 39189   0.0553 345.1263 0005084   8.8542   6.0077  5.00115220231870
O3B FM2                 
1 39190U 13031C   26065.08145578 -.00000026  00000+0  00000+0 0  9994
2 39190   0.0562 338.9132 0002827   5.0674  16.0049  5.00116024231956
O3B PFM                 
1 39191U 13031D   26065.09556941 -.00000026  00000+0  00000+0 0  9996
2 39191   0.0668   7.2787 0005147 352.3292   0.3862  5.00115906231517
O3B FM3                 
1 40079U 14038A   26064.96230168 -.00000026  00000+0  00000+0 0  9996
2 40079   0.0530 353.4607 0000629  56.5269 310.0124  5.00115599207889
O3B FM7                 
1 40080U 14038B   26061.31035470 -.00000029  00000+0  00000+0 0  9996
2 40080   0.0588 348.9474 0004488 339.4059  31.6123  5.00115622212532
O3B FM6                 
1 40081U 14038C   26064.93539554 -.00000026  00000+0  00000+0 0  9997
2 40081   0.0549 351.2735 0002658 350.6773  18.0342  5.00115720212667
O3B FM8                 
1 40082U 14038D   26063.58947926 -.00000027  00000+0  00000+0 0  9995
2 40082   0.0558 350.6431 0002658 354.8269  14.5160  5.00115977212719
O3B FM10                
1 40348U 14083A   26064.81588118 -.00000026  00000+0  00000+0 0  9990
2 40348   0.0432 347.4987 0002684 355.6490  16.8377  5.00115238204726
O3B FM11                
1 40349U 14083B   26065.02849344 -.00000026  00000+0  00000+0 0  9996
2 40349   0.0567   0.4580 0003129 333.2733  26.2473  5.00115617204754
O3B FM12                
1 40350U 14083C   26062.45701119 -.00000028  00000+0  00000+0 0  9991
2 40350   0.0560 359.7796 0002643 337.6957  22.5061  5.00115945204637
O3B FM9                 
1 40351U 14083D   26065.08241741 -.00000026  00000+0  00000+0 0  9992
2 40351   0.0579   0.7211 0002732 342.9273  16.3373  5.00115916204918
LEO 1 (LEO VANTAGE 1)   
1 43113U 18004C   26065.22832891  .00005704  00000+0  39548-3 0  9996
2 43113  99.2482 330.0989 0353224  35.4961 326.9196 14.67143351422387
O3B FM15                
1 43231U 18024A   26064.94928999 -.00000026  00000+0  00000+0 0  9992
2 43231   0.0486   0.9069 0002688 340.0136  19.0639  5.00115727145868
O3B FM16                
1 43232U 18024B   26065.20155549 -.00000026  00000+0  00000+0 0  9996
2 43232   0.0450   2.8168 0002827 339.2721  17.8957  5.00115882145799
O3B FM14                
1 43233U 18024C   26065.04241878 -.00000026  00000+0  00000+0 0  9990
2 43233   0.0435   1.7188 0002846 343.7951  14.4724  5.00115671145789
O3B FM13                
1 43234U 18024D   26062.10991137 -.00000028  00000+0  00000+0 0  9997
2 43234   0.0485 331.6373 0004295 331.6147  56.6997  5.00115687145742
